STARLINK-3366           
1 51104U 22005A   22048.58334491  .00054498  00000+0  39032-3 0  9992
2 51104  53.2170 128.3080 0002792  15.6960 112.7504 15.73189993  3716
STARLINK-3350           
1 51105U 22005B   22048.58334491  .00023810  00000+0  17355-3 0  9991
2 51105  53.2161 128.3202 0002859  16.3648 105.0907 15.73202779  5967
STARLINK-3176           
1 51106U 22005C   22048.58334491  .00688426  00000+0  46028-2 0  9990
2 51106  53.2172 128.2969 0002512  18.4549 106.8033 15.72769884  5961
STARLINK-3368           
1 51107U 22005D   22048.58334491 -.00048710  00000+0 -34403-3 0  9994
2 51107  53.2156 128.3220 0002662  19.9075 100.9678 15.73236433  5961
STARLINK-3362           
1 51108U 22005E   22048.58334491 -.00013142  00000+0 -89146-4 0  9991
2 51108  53.2163 128.3202 0002780  18.9634 103.1057 15.73247717  5964
STARLINK-3358           
1 51109U 22005F   22048.58334491 -.00023503  00000+0 -16340-3 0  9999
2 51109  53.2161 127.5791 0002727  16.9231 101.0758 15.73208180  3693
STARLINK-3344           
1 51110U 22005G   22048.58334491  .00778120  00000+0  51577-2 0  9991
2 51110  53.2172 128.3004 0002701  26.3988  97.0023 15.72715059  5967
STARLINK-3173           
1 51111U 22005H   22048.58334491  .00056113  00000+0  40211-3 0  9997
2 51111  53.2162 128.3078 0003020   7.7299 120.0583 15.73164220  3674
STARLINK-3374           
1 51112U 22005J   22048.58334491  .00021074  00000+0  15413-3 0  9992
2 51112  53.2157 128.3159 0002966   6.4052 117.5293 15.73207551  5968
STARLINK-3372           
1 51113U 22005K   22048.58334491  .00064227  00000+0  45909-3 0  9993
2 51113  53.2165 128.3118 0002912  20.7490 105.1027 15.73169089  3676
STARLINK-3375           
1 51114U 22005L   22048.58334491  .00056484  00000+0  40453-3 0  9999
2 51114  53.2163 128.3189 0002923   7.3097 115.4169 15.73175638  3677
STARLINK-3397           
1 51115U 22005M   22048.58334491 -.00049167  00000+0 -34734-3 0  9997
2 51115  53.2163 128.3087 0002941  13.7166 113.4495 15.73233545  5969
STARLINK-3243           
1 51116U 22005N   22048.58334491  .00065427  00000+0  46719-3 0  9999
2 51116  53.2165 128.3152 0002918  19.1838 105.3729 15.73185518  5961
STARLINK-3391           
1 51117U 22005P   22048.58334491  .00067355  00000+0  48094-3 0  9990
2 51117  53.2162 128.3043 0003107  15.8500 113.7741 15.73173834  3679
STARLINK-3394           
1 51118U 22005Q   22048.58334491 -.00038718  00000+0 -27231-3 0  9994
2 51118  53.2151 128.3127 0003056  10.2366 116.2714 15.73226419  5963
STARLINK-3390           
1 51119U 22005R   22048.58334491  .00027475  00000+0  19963-3 0  9994
2 51119  53.2174 128.3016 0002777  21.1219 109.1987 15.73187026  3672
STARLINK-3398           
1 51120U 22005S   22048.58334491  .00066393  00000+0  47445-3 0  9994
2 51120  53.2164 128.3001 0002871  18.4150 113.1432 15.73161814  3672
STARLINK-3399           
1 51121U 22005T   22048.58334491 -.00048448  00000+0 -34237-3 0  9993
2 51121  53.2162 128.3052 0003172  13.1416 115.9118 15.73218368  3677
STARLINK-3373           
1 51122U 22005U   22048.58334491  .00749023  00000+0  49781-2 0  9998
2 51122  53.2172 128.2850 0002280  18.2905 112.6595 15.72735061  5962
STARLINK-3392           
1 51123U 22005V   22048.58334491  .00016171  00000+0  11938-3 0  9994
2 51123  53.2164 128.2983 0002949  15.9483 116.2022 15.73206090  3675
STARLINK-3389           
1 51124U 22005W   22048.58334491  .00016805  00000+0  12392-3 0  9994
2 51124  53.2162 128.2979 0003025  14.7105 118.1162 15.73197121  3673
STARLINK-3387           
1 51125U 22005X   22048.58334491  .00062747  00000+0  44864-3 0  9990
2 51125  53.2167 128.2933 0002822  19.0797 115.5618 15.73171890  3670
STARLINK-3386           
1 51126U 22005Y   22048.58334491  .00017343  00000+0  12765-3 0  9998
2 51126  53.2166 128.2966 0002843  17.7687 115.6585 15.73213455  3670
STARLINK-3370           
1 51127U 22005Z   22048.58334491 -.00035779  00000+0 -25118-3 0  9990
2 51127  53.2173 128.2925 0003118  12.1028 121.9583 15.73229551  5964
STARLINK-3400           
1 51128U 22005AA  22048.58334491  .00063522  00000+0  45417-3 0  9990
2 51128  53.2162 128.2857 0003005  14.5004 123.9712 15.73167010  3675
STARLINK-3396           
1 51129U 22005AB  22048.58334491 -.00020309  00000+0 -14036-3 0  9992
2 51129  53.2205 126.7786 0002093  32.5408 119.3548 15.73241074  3705
STARLINK-3395           
1 51130U 22005AC  22048.58334491 -.00039119  00000+0 -27507-3 0  9990
2 51130  53.2162 128.2920 0002948  15.3300 119.9608 15.73237396  3676
STARLINK-3388           
1 51131U 22005AD  22048.58334491  .00028595  00000+0  20755-3 0  9993
2 51131  53.2176 128.2866 0002698  15.6575 121.5839 15.73188244  5966
STARLINK-3393           
1 51132U 22005AE  22048.58334491  .00017323  00000+0  12758-3 0  9995
2 51132  53.2174 128.2914 0003132  24.1306 112.4350 15.73199613  5969
STARLINK-3356           
1 51133U 22005AF  22048.58334491 -.00043126  00000+0 -30397-3 0  9997
2 51133  53.2175 128.2818 0002997  16.7760 122.3472 15.73227649  5969
STARLINK-3183           
1 51134U 22005AG  22048.58334491 -.00008837  00000+0 -58554-4 0  9994
2 51134  53.2122 127.5684 0003074  10.7137 108.4409 15.73207466  5975
STARLINK-3363           
1 51135U 22005AH  22048.58334491  .00011741  00000+0  88005-4 0  9995
2 51135  53.2173 128.2806 0002894  19.3343 120.4523 15.73187573  3716
STARLINK-3253           
1 51136U 22005AJ  22043.57372980 -.00281505  00000+0 -12166-2 0  9997
2 51136  53.2206 151.2415 0001593  42.5671 317.5477 15.84870528  5207
STARLINK-3180           
1 51137U 22005AK  22048.58334491  .00018939  00000+0  13899-3 0  9991
2 51137  53.2159 128.2769 0002989  19.1675 123.0509 15.73209074  5964
STARLINK-3177           
1 51138U 22005AL  22048.58334491  .00067723  00000+0  48355-3 0  9992
2 51138  53.2180 128.2811 0003005  16.5844 123.7732 15.73173023  3671
STARLINK-3172           
1 51139U 22005AM  22048.58334491  .00021927  00000+0  16028-3 0  9991
2 51139  53.2177 128.2755 0003032  18.2746 125.2301 15.73191936  3677
STARLINK-3175           
1 51140U 22005AN  22048.58334491  .00069092  00000+0  49311-3 0  9999
2 51140  53.2178 128.2780 0003066  14.7616 126.8516 15.73174912  3672
STARLINK-3179           
1 51141U 22005AP  22048.58334491  .00069011  00000+0  49253-3 0  9996
2 51141  53.2178 128.2710 0003145  21.9876 122.7829 15.73175154  3673
STARLINK-3369           
1 51142U 22005AQ  22048.58334491  .00068224  00000+0  48715-3 0  9994
2 51142  53.2170 128.2800 0002995  18.0381 122.9513 15.73169027  3670
STARLINK-3184           
1 51143U 22005AR  22048.58334491 -.00513708  00000+0 -45359-2 0  9999
2 51143  53.2173 128.2655 0003984 276.3651 213.6269 15.69515716  3671
STARLINK-3185           
1 51144U 22005AS  22048.58334491  .00017400  00000+0  12798-3 0  9998
2 51144  53.2163 128.2735 0003246  21.8295 122.2667 15.73226328  3678
STARLINK-3365           
1 51145U 22005AT  22048.58334491 -.00673296  00000+0 -60000-2 0  9990
2 51145  53.2175 128.2594 0004322 296.8095 194.8137 15.69750840  5960
STARLINK-3354           
1 51146U 22005AU  22048.58334491 -.00031785  00000+0 -22264-3 0  9993
2 51146  53.2168 128.2758 0003179  22.3144 120.5782 15.73218433  5965
STARLINK-3352           
1 51147U 22005AV  22048.58334491 -.00477805  00000+0 -38587-2 0  9995
2 51147  53.2176 128.2672 0002684 317.0185 185.8673 15.71547708  3676
STARLINK-3359           
1 51148U 22005AW  22048.58334491 -.00497058  00000+0 -43397-2 0  9993
2 51148  53.2172 128.2640 0004000 275.8704 217.4731 15.69737811  5964
STARLINK-3360           
1 51149U 22005AX  22048.58334491 -.00530515  00000+0 -46232-2 0  9991
2 51149  53.2175 128.2628 0003960 276.0162 218.9346 15.69878992  5963
STARLINK-3357           
1 51150U 22005AY  22048.58334491  .00050579  00000+0  36291-3 0  9993
2 51150  53.2172 128.2715 0003138  22.7969 122.6543 15.73177837  3678
STARLINK-3361           
1 51151U 22005AZ  22048.58334491 -.00535178  00000+0 -46201-2 0  9990
2 51151  53.2174 128.2607 0004073 276.3879 221.6954 15.70116429  5964
STARLINK-3364           
1 51152U 22005BA  22048.58334491 -.00671932  00000+0 -58990-2 0  9998
2 51152  53.2175 128.2578 0004576 299.5100 196.9726 15.70100919  5963
L-SAR 01A               
1 51284U 22007A   22048.47516890  .00000498  00000+0  59529-4 0  9991
2 51284  97.8089  57.5539 0001706  90.5937 269.5454 14.88422193  3352
CZ-4C R/B               
1 51285U 22007B   22048.54486120  .00003475  00000+0  15373-3 0  9998
2 51285  97.8451  58.6977 0122843 314.2732  44.8470 15.15842719  3419
CZ-4C DEB               
1 51286U 22007C   22041.98973314  .01050619  00000+0  15362+0 0  9993
2 51286  97.7903  50.4506 0110633 154.4635 206.2095 14.68505393  2348
ASCENT                  
1 51287U 21118E   22037.20605106 -.00000057  00000+0  00000+0 0  9991
2 51287   0.1323 113.8875 0002651 136.3445 187.7236  1.01234817   200
ELSA-D CLIENT           
1 51288U 21022AQ  22048.50258560  .00002158  00000+0  14731-3 0  9992
2 51288  97.5395 310.8843 0018348 183.0742 177.0376 15.07110097  3498
GASPACS                 
1 51439U 98067TB  22048.60662879  .00059630  00000+0  93477-3 0  9997
2 51439  51.6394 208.4932 0005617 149.1035 211.0287 15.53107675  3466
1998-067TC              
1 51440U 98067TC  22048.53550244  .00084634  00000+0  12719-2 0  9994
2 51440  51.6389 208.7687 0004863 151.3803 208.7455 15.54124158  3514
1998-067TD              
1 51441U 98067TD  22048.16589570  .00026657  00000+0  45062-3 0  9997
2 51441  51.6401 210.7990 0007510 154.6034 205.5325 15.51374766  3446
1998-067TE              
1 51442U 98067TE  22048.61464630  .00022071  00000+0  37231-3 0  9992
2 51442  51.6399 208.5459 0007599 162.7034 197.4216 15.51551254  3475
DAILI                   
1 51443U 98067TF  22048.47617986  .00060712  00000+0  95697-3 0  9995
2 51443  51.6396 209.1229 0007903 145.2127 214.9381 15.52931451  3417
